{
"type": "FeatureCollection",
"name": "study_districts",
"crs": { "type": "name", "properties": { "name": "urn:ogc:def:crs:OGC:1.3:CRS84" } },
"features": [
{ "type": "Feature", "properties": { "shapeName": "Mhondoro-Ngezi" }, "geometry": { "type": "Polygon", "coordinates": [ [ [ 30.027361999084519, -18.234943053954453 ], [ 29.999546528785572, -18.258075932083841 ], [ 30.021980216804593, -18.28457724923544 ], [ 30.022718367422328, -18.289280557329619 ], [ 30.013925294238561, -18.300872657251091 ], [ 30.026924719955048, -18.306592524140456 ], [ 30.007463207291096, -18.343431131748275 ], [ 30.002661539249345, -18.365906756137178 ], [ 30.015015331388668, -18.366654568190938 ], [ 30.015356837025934, -18.379293958601806 ], [ 29.999959263568883, -18.378551931898301 ], [ 29.992532110411275, -18.38844741333088 ], [ 29.989387147967079, -18.397644496058035 ], [ 29.963039647567598, -18.387016869692275 ], [ 29.947242006303554, -18.409974431833859 ], [ 29.904089183969745, -18.417894800265117 ], [ 29.844518391968904, -18.381581414866275 ], [ 29.836240505439491, -18.38705282286071 ], [ 29.834056569442737, -18.391377157687884 ], [ 29.833577598559373, -18.415259004401435 ], [ 29.830145595328247, -18.425893272273754 ], [ 29.828941302681756, -18.438469363776164 ], [ 29.82213993862149, -18.4395318861134 ], [ 29.815201138093528, -18.442990156795247 ], [ 29.814260162071037, -18.440006927850902 ], [ 29.803819454769268, -18.437172715068016 ], [ 29.800215553880264, -18.433977471428022 ], [ 29.796520661203886, -18.437311730748377 ], [ 29.789570858348043, -18.438334814137988 ], [ 29.785599964984158, -18.430273194307347 ], [ 29.777604190047725, -18.430195193252871 ], [ 29.772361332616413, -18.422912634281374 ], [ 29.763915574701912, -18.426705932770858 ], [ 29.760424670255986, -18.422864638267413 ], [ 29.763654575635371, -18.418870327410104 ], [ 29.760285669864118, -18.416669160368599 ], [ 29.739954775449178, -18.41389945878268 ], [ 29.73857993772782, -18.411151957005643 ], [ 29.731500639433818, -18.408306321910686 ], [ 29.720065938271318, -18.409471027221173 ], [ 29.720040125878484, -18.410832502788935 ], [ 29.717162044978068, -18.412144666631946 ], [ 29.710134971318723, -18.406575357345105 ], [ 29.708786572818894, -18.40246625859163 ], [ 29.690248246652516, -18.402144044350052 ], [ 29.690170134981201, -18.406228348745287 ], [ 29.688744093357741, -18.406203483340448 ], [ 29.683118223796043, -18.402019634588157 ], [ 29.68322256514648, -18.396573931966998 ], [ 29.681822702839952, -18.395187601786347 ], [ 29.676145090681189, -18.393726463150756 ], [ 29.663311896882419, -18.393501482003956 ], [ 29.663469250675178, -18.385333082755949 ], [ 29.66204341859418, -18.385308043781606 ], [ 29.662069647373926, -18.383946644656419 ], [ 29.646412118065996, -18.382309155810617 ], [ 29.643455056747371, -18.387704310136712 ], [ 29.642029234558947, -18.38767911827739 ], [ 29.640735395338481, -18.38084707108635 ], [ 29.63791028461219, -18.379435287343028 ], [ 29.63798950514979, -18.375351188892978 ], [ 29.627254393397493, -18.37049467738558 ], [ 29.617890656969792, -18.370322670010182 ], [ 29.612332812263219, -18.367743473991652 ], [ 29.602404091821541, -18.367295446143658 ], [ 29.587341520991117, -18.373307920634488 ], [ 29.582838646100186, -18.369382621190596 ], [ 29.577538794919917, -18.368792579316562 ], [ 29.576023846141766, -18.379621416800717 ], [ 29.564418193410063, -18.406073468992361 ], [ 29.564296204627965, -18.41881145317501 ], [ 29.567649115025404, -18.424531892933658 ], [ 29.567437122812862, -18.426880075141071 ], [ 29.56345323601812, -18.427748143879228 ], [ 29.560426325116282, -18.432390504796842 ], [ 29.558950373717778, -18.443519364807514 ], [ 29.550031628121417, -18.445697539735761 ], [ 29.545501761824141, -18.454239202443773 ], [ 29.551530609404836, -18.476871945002586 ], [ 29.547309731892767, -18.482706398339531 ], [ 29.55369155598629, -18.488547844818697 ], [ 29.55140462942353, -18.500091737385048 ], [ 29.554111562702133, -18.514143818956939 ], [ 29.55210462532807, -18.521387378750148 ], [ 29.545036830285255, -18.528707947643682 ], [ 29.544946837646705, -18.535731489658303 ], [ 29.547055791619073, -18.554298919742735 ], [ 29.554002607820394, -18.570238143357415 ], [ 29.553909616836165, -18.578794802290417 ], [ 29.556817537301526, -18.58186403717076 ], [ 29.571305129932227, -18.584700245553222 ], [ 29.575610004290866, -18.579210819605692 ], [ 29.581364839589014, -18.577667696810352 ], [ 29.589031623878725, -18.577512680360257 ], [ 29.596941401872414, -18.579843853655859 ], [ 29.611989984619925, -18.591883771882863 ], [ 29.61815281706339, -18.599342342019497 ], [ 29.625667604832472, -18.600496426315374 ], [ 29.635772329244674, -18.612914375318041 ], [ 29.63975821703491, -18.614663507124533 ], [ 29.643672105857945, -18.613488413724383 ], [ 29.648293976581215, -18.616683657364433 ], [ 29.653408832351204, -18.615155536190002 ], [ 29.665453482820283, -18.604028670879586 ], [ 29.669449371091616, -18.605041746593542 ], [ 29.676533174098722, -18.610289145610182 ], [ 29.690621779010371, -18.613902414755671 ], [ 29.696137619897684, -18.610223128045845 ], [ 29.699517525298802, -18.610503146912265 ], [ 29.707675298136337, -18.615599534167927 ], [ 29.720098942556888, -18.610869161822109 ], [ 29.730543648252421, -18.611123174941042 ], [ 29.735487513782346, -18.619159789971718 ], [ 29.734453551272225, -18.629854613814643 ], [ 29.736038516008534, -18.642884615642345 ], [ 29.743114317731454, -18.645638822777869 ], [ 29.750709103053964, -18.645514808718474 ], [ 29.756932921344912, -18.637839213753125 ], [ 29.762698755373663, -18.63387990637824 ], [ 29.777079345554682, -18.630335622565838 ], [ 29.775920385124891, -18.638722269723019 ], [ 29.776942357849578, -18.641646494030283 ], [ 29.781438234202369, -18.645242767753814 ], [ 29.781083246801415, -18.649235074917669 ], [ 29.788451039189738, -18.649805114030869 ], [ 29.793594890958957, -18.646745876034345 ], [ 29.800131709019468, -18.651073203811222 ], [ 29.80112368389814, -18.654642478034475 ], [ 29.799881723072644, -18.661064973149223 ], [ 29.803741621888321, -18.671914805348422 ], [ 29.806072557762491, -18.674698016577054 ], [ 29.814548318019547, -18.673833945333399 ], [ 29.826382988063415, -18.681210505229785 ], [ 29.82980889208028, -18.681982562154872 ], [ 29.833222793721177, -18.679941402810812 ], [ 29.83531572893736, -18.672845856432957 ], [ 29.842271532081838, -18.671466746024066 ], [ 29.850442304645412, -18.677505204678596 ], [ 29.85388421123065, -18.683104633220125 ], [ 29.855704164789472, -18.69077222060605 ], [ 29.858825076616199, -18.690400191018341 ], [ 29.861371001250006, -18.685427807030237 ], [ 29.864797902616999, -18.683702671881747 ], [ 29.870626740575915, -18.687426955360536 ], [ 29.879606489106834, -18.689750128271271 ], [ 29.884002368742642, -18.69602960841263 ], [ 29.889505212601875, -18.69571057957603 ], [ 29.891247167804124, -18.703093146056347 ], [ 29.904055801068864, -18.695720571063873 ], [ 29.909953634253327, -18.694737492296611 ], [ 29.912518561599825, -18.696469624184545 ], [ 29.913287543736772, -18.701611018101687 ], [ 29.915000495745176, -18.702953120435325 ], [ 29.923632252715379, -18.70361916596562 ], [ 29.925624194763714, -18.701573008179651 ], [ 29.926343169998574, -18.694634473851522 ], [ 29.931412021756955, -18.688830024655829 ], [ 29.932947978739946, -18.688935032405197 ], [ 29.936630878033611, -18.693868409121137 ], [ 29.940168778445411, -18.693400370418374 ], [ 29.946628591002934, -18.68729489684938 ], [ 29.948753531355862, -18.687620920626728 ], [ 29.954088383320595, -18.692319278842547 ], [ 29.968558967938861, -18.683584597856282 ], [ 29.974455801075237, -18.682993548739546 ], [ 29.976685735687738, -18.680508357243241 ], [ 29.980937621885744, -18.689715061836182 ], [ 29.98923039132535, -18.695054467077512 ], [ 29.993397274333461, -18.696515576934758 ], [ 30.004871947742629, -18.694329401621644 ], [ 30.008503846381359, -18.69557549484017 ], [ 30.018028587856634, -18.712959824844347 ], [ 30.028558287748922, -18.708922509220372 ], [ 30.03085721758697, -18.702446009709035 ], [ 30.034435115426504, -18.699641792074146 ], [ 30.039717963990256, -18.698087668749622 ], [ 30.049738681663371, -18.699864800104478 ], [ 30.052021622422899, -18.706431303046259 ], [ 30.054282559426042, -18.70872347806295 ], [ 30.061360357647914, -18.707258360818685 ], [ 30.067040199230462, -18.709532532271453 ], [ 30.069808122853203, -18.713381826260445 ], [ 30.068940151242032, -18.718234199978895 ], [ 30.071837072077528, -18.72274154360997 ], [ 30.100477258309638, -18.717038089380651 ], [ 30.102846190615992, -18.718003161886031 ], [ 30.105190128014897, -18.722449501683172 ], [ 30.113211899705561, -18.720771367896475 ], [ 30.120390699189102, -18.72443364479517 ], [ 30.132264359418059, -18.718301167229242 ], [ 30.140200135964562, -18.721353396795109 ], [ 30.146642953100184, -18.719304235267487 ], [ 30.150781840157151, -18.725387699684234 ], [ 30.160800555935339, -18.725392695428127 ], [ 30.173995186186346, -18.730803102286586 ], [ 30.18167596755228, -18.730484072550666 ], [ 30.187022820094342, -18.735575461364419 ], [ 30.188193790094658, -18.739235741764219 ], [ 30.206497280323617, -18.752342737403751 ], [ 30.211531141190051, -18.758107176581177 ], [ 30.213362090781402, -18.761196413323034 ], [ 30.214291069823844, -18.768547977412652 ], [ 30.221875862759134, -18.780994926911148 ], [ 30.225234768948667, -18.782111011177562 ], [ 30.229427648710953, -18.780765905102328 ], [ 30.23579946962542, -18.782919067136618 ], [ 30.23895037929816, -18.780275861743917 ], [ 30.246858157195618, -18.783972141177628 ], [ 30.250846045082085, -18.784005141865919 ], [ 30.25454394239938, -18.786833356158809 ], [ 30.2588698177683, -18.784426169314315 ], [ 30.260220780240331, -18.784975211014569 ], [ 30.26354869123378, -18.794316924800114 ], [ 30.267674577665332, -18.799163294632592 ], [ 30.268236564232893, -18.802808574310802 ], [ 30.273506416667885, -18.805976813953862 ], [ 30.274563389277716, -18.809113053856152 ], [ 30.278094287554097, -18.807022891255428 ], [ 30.280121231286273, -18.807826952417997 ], [ 30.28919997198949, -18.804880720757069 ], [ 30.290118943356219, -18.800435379209432 ], [ 30.296022773232096, -18.795646009421148 ], [ 30.30299157610267, -18.796918102091922 ], [ 30.311792328612682, -18.800815395692155 ], [ 30.316579193784037, -18.800851395625386 ], [ 30.319224119583339, -18.803272580445423 ], [ 30.32153805913623, -18.81029711801159 ], [ 30.326847910797596, -18.814269418817275 ], [ 30.326853911985552, -18.815659526158072 ], [ 30.322757028747787, -18.816981630227474 ], [ 30.3227630299358, -18.818459742701236 ], [ 30.328539869889653, -18.824514203924139 ], [ 30.337505618646446, -18.830118628209561 ], [ 30.342125489273485, -18.830703670742423 ], [ 30.347796332221719, -18.83724316878795 ], [ 30.353411173375207, -18.837464182117969 ], [ 30.354031160934426, -18.846190851028155 ], [ 30.355330126300828, -18.84796098564351 ], [ 30.366189817787244, -18.847787965629493 ], [ 30.373859603120593, -18.852028287422229 ], [ 30.376880516431754, -18.849809115018161 ], [ 30.384915287848514, -18.84883803592885 ], [ 30.387672206445416, -18.8429445833508 ], [ 30.390578122317947, -18.840573400036874 ], [ 30.393085058565362, -18.852518313693565 ], [ 30.395076004162888, -18.855543543759097 ], [ 30.402123807236762, -18.859676856806971 ], [ 30.404755730611953, -18.856969648335223 ], [ 30.408064637993334, -18.85810873370815 ], [ 30.411518541558564, -18.861651003035206 ], [ 30.411905533197, -18.864869249580352 ], [ 30.41505444367283, -18.864367209241891 ], [ 30.418814334080309, -18.859638845086238 ], [ 30.420876275899047, -18.860277892914951 ], [ 30.42913804834393, -18.870484669898417 ], [ 30.43974675203674, -18.877542204555539 ], [ 30.446883557593651, -18.892026309608354 ], [ 30.456838276588201, -18.893277400369527 ], [ 30.463530091313658, -18.898627806140041 ], [ 30.476089736881079, -18.902153069253302 ], [ 30.48525647642191, -18.899602869233945 ], [ 30.490887317445811, -18.900645946391194 ], [ 30.49837910680634, -18.906071356669202 ], [ 30.499937064847757, -18.908808565684865 ], [ 30.504483937358827, -18.911157743443766 ], [ 30.530284204598331, -18.909540605397126 ], [ 30.544035806787122, -18.895785545308115 ], [ 30.557524941313602, -18.876750187137759 ], [ 30.558212354778334, -18.819558516782422 ], [ 30.599808169656001, -18.809019686954514 ], [ 30.602523064648551, -18.76012793386468 ], [ 30.611438804704619, -18.746908914850508 ], [ 30.598426146337147, -18.699689294359359 ], [ 30.602797021172933, -18.696782068171956 ], [ 30.630375256138507, -18.724195160300951 ], [ 30.639533980005922, -18.6953969430852 ], [ 30.64908773097028, -18.732940822031253 ], [ 30.682354753991945, -18.670983043798003 ], [ 30.706651051398694, -18.643320903716983 ], [ 30.706857779868869, -18.638188057872924 ], [ 30.708904334256658, -18.637051049038689 ], [ 30.709138645888288, -18.634965815631915 ], [ 30.705202101299108, -18.63642626538541 ], [ 30.70391243494123, -18.634330134871675 ], [ 30.766240767871068, -18.570732058304998 ], [ 30.766746288592799, -18.532718358196348 ], [ 30.765171325236906, -18.506009485196671 ], [ 30.753772658181958, -18.526802093369781 ], [ 30.748197818053541, -18.530944414944486 ], [ 30.747020854059826, -18.535886795690715 ], [ 30.737319139142869, -18.553686172639743 ], [ 30.733784239774764, -18.555799337246299 ], [ 30.727036430449061, -18.554752259896702 ], [ 30.721896572577009, -18.550854961799814 ], [ 30.712607836160146, -18.549914894993776 ], [ 30.704649062104409, -18.551292005306493 ], [ 30.690935448253867, -18.548771816623002 ], [ 30.686508571623278, -18.546034609405979 ], [ 30.675226888613338, -18.542668354841396 ], [ 30.672130977089978, -18.542986380931893 ], [ 30.663170227674414, -18.539301102027309 ], [ 30.659854321754949, -18.539198096172811 ], [ 30.655877436196306, -18.54194330917062 ], [ 30.649460615814974, -18.539099093208677 ], [ 30.644814744836367, -18.535093787218102 ], [ 30.640502867443047, -18.534885772714858 ], [ 30.630548145750538, -18.53067245401968 ], [ 30.620819421440785, -18.530149418066856 ], [ 30.613680624780898, -18.532998642363282 ], [ 30.612245667260936, -18.535848862211196 ], [ 30.60804378616632, -18.53574385626041 ], [ 30.603510911630849, -18.532897639302917 ], [ 30.601850958574857, -18.533216663642861 ], [ 30.601743964219111, -18.536064884293864 ], [ 30.599091039833638, -18.537858023613069 ], [ 30.591792243570296, -18.533008653636273 ], [ 30.586596391997375, -18.534486769707257 ], [ 30.58438445285492, -18.533010658229102 ], [ 30.583171488927974, -18.536069894426987 ], [ 30.581181546076493, -18.537019968009417 ], [ 30.572114802353269, -18.535333842831108 ], [ 30.568803899372313, -18.542296381011795 ], [ 30.57013086428708, -18.545880656855957 ], [ 30.568251916883128, -18.545775650005908 ], [ 30.567368942751671, -18.547991821366338 ], [ 30.555649273743654, -18.547043754175434 ], [ 30.552776356760717, -18.549786967077011 ], [ 30.550344425920173, -18.549679960130732 ], [ 30.546694527314742, -18.546305701583947 ], [ 30.541828663738727, -18.545145615200738 ], [ 30.54094368591376, -18.540612265822233 ], [ 30.532646916281635, -18.531013530679445 ], [ 30.530216986436642, -18.533966759979194 ], [ 30.524356149636219, -18.531013535176101 ], [ 30.520156268637834, -18.531856602711514 ], [ 30.510537537029506, -18.524789063076696 ], [ 30.500174828084255, -18.521466812427548 ], [ 30.496884921616982, -18.521914849268796 ], [ 30.494064004437746, -18.525653137917686 ], [ 30.490459102601278, -18.522063863631615 ], [ 30.489204133955752, -18.513092173042253 ], [ 30.483877286872485, -18.517876544388571 ], [ 30.476120779741336, -18.521591593610196 ], [ 30.471655508278104, -18.518598683444736 ], [ 30.466120928179976, -18.518638454242875 ], [ 30.464161054221051, -18.512550224309109 ], [ 30.455774049132913, -18.511459786959904 ], [ 30.446461279185769, -18.503707975198495 ], [ 30.475848449194416, -18.44232152031293 ], [ 30.43228219420206, -18.437454609923975 ], [ 30.39808874172104, -18.409026417703046 ], [ 30.38070223355453, -18.422002128249915 ], [ 30.354942728168055, -18.415974384139588 ], [ 30.334247884590127, -18.416467049926382 ], [ 30.289564810583784, -18.413064935723014 ], [ 30.255328681589276, -18.402210456717569 ], [ 30.255102239940584, -18.403575838048766 ], [ 30.252862393880093, -18.402761370810026 ], [ 30.250730187889872, -18.399342871825695 ], [ 30.249874823899574, -18.390148815323244 ], [ 30.246185927914553, -18.38937475740255 ], [ 30.245646944252144, -18.391350910022311 ], [ 30.244116986658469, -18.391437917805035 ], [ 30.243125012679059, -18.388000652630126 ], [ 30.239976102203229, -18.38808666126414 ], [ 30.241145066711397, -18.384651395286085 ], [ 30.243215008914945, -18.384478380667986 ], [ 30.242494028187934, -18.382158201606273 ], [ 30.240064097443565, -18.383877335566808 ], [ 30.234395256390201, -18.380957113250588 ], [ 30.228547421114513, -18.381473156960567 ], [ 30.229358400775368, -18.385683481806666 ], [ 30.226299485636105, -18.383020278149729 ], [ 30.224769529841012, -18.384308377885475 ], [ 30.22035965312898, -18.382246221128355 ], [ 30.221441624243596, -18.384910425732755 ], [ 30.219911666649864, -18.385168447138085 ], [ 30.215501789038512, -18.380615097696705 ], [ 30.21352184486949, -18.380443085824709 ], [ 30.209922946918994, -18.381473166853084 ], [ 30.20830599503239, -18.384481400597451 ], [ 30.205157082757864, -18.383793348612812 ], [ 30.203446131745011, -18.384825429737418 ], [ 30.202816147301974, -18.37932600510743 ], [ 30.199307249184642, -18.383793353109411 ], [ 30.196699323366772, -18.384479406796515 ], [ 30.199488246201099, -18.388431711136661 ], [ 30.192110456029695, -18.390407868252964 ], [ 30.190944236257906, -18.345097314420457 ], [ 30.09510235585708, -18.350793121699155 ], [ 30.110826858710595, -18.327277146902929 ], [ 30.12565128229329, -18.309547652812114 ], [ 30.121432838351552, -18.296942934932531 ], [ 30.116077621198485, -18.299012651405803 ], [ 30.097135423984582, -18.272871944227802 ], [ 30.086750211258959, -18.283485076191255 ], [ 30.080069023843237, -18.243370116724975 ], [ 30.065183599124566, -18.258842423093768 ], [ 30.0363625984387, -18.227455269282984 ], [ 30.027361999084519, -18.234943053954453 ] ] ] } },
{ "type": "Feature", "properties": { "shapeName": "Gwanda" }, "geometry": { "type": "Polygon", "coordinates": [ [ [ 29.85480417185363, -21.310324307312442 ], [ 29.89069915493036, -21.328466601837192 ], [ 29.896383064154634, -21.359268974818349 ], [ 29.850242345385823, -21.426485931411889 ], [ 29.803527001851478, -21.498949494717863 ], [ 29.495878397999491, -21.453989462244124 ], [ 29.51976498684769, -21.51474041623419 ], [ 29.46711451876655, -21.533197796060506 ], [ 29.452638444675586, -21.539871678268639 ], [ 29.429870602991741, -21.54676980867464 ], [ 29.359916629837812, -21.561183910359887 ], [ 29.298729478604741, -21.653859667226584 ], [ 29.24794105063944, -21.747417432350971 ], [ 29.237497343193354, -21.757642211099721 ], [ 29.23221650461835, -21.767896955318804 ], [ 29.234876429340545, -21.76859100309548 ], [ 29.232931493150602, -21.776694588973726 ], [ 29.228939607769689, -21.777403642868023 ], [ 29.228195634929421, -21.783174059850978 ], [ 29.223982759600858, -21.786807324562687 ], [ 29.226227701230243, -21.79220571195799 ], [ 29.225906719961642, -21.802840478055714 ], [ 29.223112803182005, -21.804644610709488 ], [ 29.221700847667819, -21.809473959938998 ], [ 29.21796695761185, -21.812259164069303 ], [ 29.217174985160284, -21.816665482156907 ], [ 29.208506237201959, -21.817928579790646 ], [ 29.206223305435685, -21.820741784368636 ], [ 29.208022260682185, -21.828917371912098 ], [ 29.215083062582778, -21.834406760987349 ], [ 29.215888044652957, -21.839277111290016 ], [ 29.21286313384735, -21.841077242852009 ], [ 29.207705281404628, -21.839265117007926 ], [ 29.20449137499628, -21.840631217798204 ], [ 29.198844545793179, -21.849950892753782 ], [ 29.200869495724419, -21.858273490067177 ], [ 29.190499799932297, -21.863431870413024 ], [ 29.185893937173319, -21.867406159623727 ], [ 29.183576008219859, -21.87164646702729 ], [ 29.180048110087796, -21.872079501348253 ], [ 29.178392159922225, -21.874189654119334 ], [ 29.181681071737387, -21.880824128856148 ], [ 29.182993043125066, -21.890132796987245 ], [ 29.187333921913591, -21.894285091164022 ], [ 29.188096902862526, -21.897655333330533 ], [ 29.037720341435545, -21.996842585097113 ], [ 29.027321617268512, -21.973063888129843 ], [ 29.02046878130767, -21.940287541590635 ], [ 29.020901743682714, -21.916306818717544 ], [ 29.023033670882512, -21.904207948014289 ], [ 29.02567957964277, -21.889905917367855 ], [ 29.036795233082898, -21.863926038969907 ], [ 29.053105738047805, -21.839897295801165 ], [ 29.078295989430785, -21.81661559666361 ], [ 29.071651170671146, -21.806778895037098 ], [ 29.0584845417672, -21.79916035677337 ], [ 29.047566855584421, -21.798514320299148 ], [ 29.038620111339014, -21.79538910340915 ], [ 29.032219291727358, -21.791368819180036 ], [ 29.008690965617518, -21.787357549773105 ], [ 28.999293223057464, -21.774229613377997 ], [ 28.990142479789768, -21.767254117739469 ], [ 28.978845805051435, -21.767340133567984 ], [ 28.959234375103506, -21.772221503285664 ], [ 28.94295184090862, -21.76925330384131 ], [ 28.917367570570775, -21.762107810816133 ], [ 28.902148008375093, -21.76132376860221 ], [ 28.889450368759185, -21.756177408618839 ], [ 28.860133209312778, -21.752250152246233 ], [ 28.8282471061396, -21.732020721345464 ], [ 28.821339302606361, -21.73019159558288 ], [ 28.803789809081252, -21.730104604887288 ], [ 28.794547073078718, -21.728534500578064 ], [ 28.775144619011257, -21.716263633291305 ], [ 28.779806499752794, -21.700718258659265 ], [ 28.773679896570172, -21.693231590048697 ], [ 28.774501212159919, -21.676779702383044 ], [ 28.764203812111873, -21.667882216802298 ], [ 28.763525222812632, -21.66253582831132 ], [ 28.75665268266647, -21.660792301990341 ], [ 28.755256414957387, -21.655262249088366 ], [ 28.749027701646753, -21.655997190019377 ], [ 28.74343246575296, -21.654211177841603 ], [ 28.738324604923775, -21.646724641431604 ], [ 28.732121778649855, -21.64268835463406 ], [ 28.731554790942425, -21.638627062137232 ], [ 28.734124714032873, -21.634907790590262 ], [ 28.739384562389432, -21.634285740881467 ], [ 28.742052482100632, -21.631597544115664 ], [ 28.741860484554934, -21.629440388184207 ], [ 28.738804571358628, -21.627464248155036 ], [ 28.732802743962679, -21.627485254561236 ], [ 28.730580806137823, -21.625852139127289 ], [ 28.723854978085399, -21.605323658768327 ], [ 28.766778589752391, -21.459224025211654 ], [ 28.746979023955362, -21.329339594373323 ], [ 28.681123854095574, -21.270819387984432 ], [ 28.695055886726891, -21.239936032690252 ], [ 28.620384550845813, -21.227708296974754 ], [ 28.656971461093576, -21.18924045271666 ], [ 28.633817072936608, -21.139378827430107 ], [ 28.689210425666147, -21.082817635246499 ], [ 28.675271797393805, -21.054735590073221 ], [ 28.700000068818724, -21.036072199437228 ], [ 28.719946531970265, -21.070008669231925 ], [ 28.76286628283998, -21.051645284035374 ], [ 28.742557829252803, -21.015484649689881 ], [ 28.762342239644511, -20.994459088763506 ], [ 28.699144004255174, -20.948659782102254 ], [ 28.70606570863697, -20.853781796092562 ], [ 28.65530999807288, -20.693470014810543 ], [ 28.679513305394721, -20.692737939125323 ], [ 28.733051762237039, -20.679802934673376 ], [ 28.748006231644126, -20.647125673836058 ], [ 28.784380237764935, -20.622961684952486 ], [ 28.815130395104688, -20.659293347309642 ], [ 28.825387100749026, -20.659044319142708 ], [ 28.923201344018935, -20.69920020323957 ], [ 28.956987279593534, -20.59717262778463 ], [ 28.976236743387517, -20.611104643328758 ], [ 29.048111682153831, -20.604940127351085 ], [ 29.133720218645635, -20.588090808695938 ], [ 29.158744474633124, -20.557362512120051 ], [ 29.182914787561913, -20.560834750200399 ], [ 29.181041847641211, -20.56854632261593 ], [ 29.182087842204965, -20.594658255927754 ], [ 29.184009788979608, -20.59708843398613 ], [ 29.185989741242565, -20.606254111425528 ], [ 29.185405765307792, -20.613734664634023 ], [ 29.190752623245828, -20.626621614615942 ], [ 29.193836550379672, -20.643434855995963 ], [ 29.197828444753839, -20.652987559248061 ], [ 29.199945400909769, -20.671073895145582 ], [ 29.216086975985434, -20.711686882167271 ], [ 29.222583800215546, -20.72214564879107 ], [ 29.235104472685066, -20.75677419504467 ], [ 29.238900375616367, -20.769783151795195 ], [ 29.240391346622289, -20.78440222916845 ], [ 29.24569420424217, -20.794560973265675 ], [ 29.248521134300631, -20.806522852666546 ], [ 29.257642883367737, -20.817433650028761 ], [ 29.258136878355174, -20.82827644771686 ], [ 29.270233541218431, -20.83792014905157 ], [ 29.268959583350068, -20.844371624877056 ], [ 29.271293519368498, -20.847363842563141 ], [ 29.285303125875487, -20.856077473076311 ], [ 29.289903007231601, -20.870370522175563 ], [ 29.289835021946658, -20.885401628362843 ], [ 29.297551816735734, -20.903159927796253 ], [ 29.301940695135499, -20.906616177697401 ], [ 29.311493420870647, -20.906149137244086 ], [ 29.324772044370889, -20.910860471803517 ], [ 29.337446691873481, -20.92302635742135 ], [ 29.349201361665962, -20.931134942640824 ], [ 29.353382248944911, -20.938050447983358 ], [ 29.356075177952675, -20.944964954177181 ], [ 29.355655197317219, -20.952546511345361 ], [ 29.352617292181492, -20.961329158667809 ], [ 29.347169453666197, -20.967776636998849 ], [ 29.345829497119269, -20.973098028783738 ], [ 29.349937404268644, -21.000661048089228 ], [ 29.3466565036303, -21.007211532274766 ], [ 29.35794019033375, -21.018509350953082 ], [ 29.357294220409472, -21.030744248883593 ], [ 29.439539882895076, -21.056263054741237 ], [ 29.498596163633749, -21.028180951111892 ], [ 29.534468142905951, -21.036806555807686 ], [ 29.592461482222518, -21.040537784764467 ], [ 29.6896036778748, -21.021338305389463 ], [ 29.730700500222497, -21.022919391342043 ], [ 29.732098466754337, -21.031186995902033 ], [ 29.731033499155558, -21.033302151611565 ], [ 29.736094362220285, -21.042942854600653 ], [ 29.747799051191066, -21.073228065112971 ], [ 29.747381066155242, -21.077250360230209 ], [ 29.752120938958058, -21.087280090926811 ], [ 29.754706864616878, -21.087789126206076 ], [ 29.756749809118787, -21.09086234958761 ], [ 29.76596454287494, -21.08889919939196 ], [ 29.76552156293161, -21.098024867712411 ], [ 29.770091434750555, -21.102244173206373 ], [ 29.770680422617033, -21.107396549666248 ], [ 29.774283322558631, -21.111562851711142 ], [ 29.777240238186778, -21.112313904927987 ], [ 29.785957993898364, -21.119516425876441 ], [ 29.791460843153516, -21.128009043059592 ], [ 29.801323565815949, -21.135646594827904 ], [ 29.803995489316833, -21.135755600971095 ], [ 29.807688386393579, -21.139121843844464 ], [ 29.812750241412459, -21.139392859579971 ], [ 29.815874153383561, -21.142172060723624 ], [ 29.820368024244203, -21.14217605821807 ], [ 29.834121636421798, -21.150087626765526 ], [ 29.838786501119841, -21.14987860771754 ], [ 29.84105843685353, -21.151373715613147 ], [ 29.843440375181274, -21.158526236854129 ], [ 29.83507461841748, -21.1618284847425 ], [ 29.831429725448572, -21.164866709138209 ], [ 29.831303737373332, -21.175114458416431 ], [ 29.838467534336644, -21.178957734130279 ], [ 29.842212433915051, -21.188405422438393 ], [ 29.844828359218468, -21.187822377303803 ], [ 29.845681334604649, -21.188996461662555 ], [ 29.847155295799553, -21.192840741921145 ], [ 29.846692314894028, -21.200310288305161 ], [ 29.849683232157872, -21.203354507593644 ], [ 29.874483525033099, -21.210041978584968 ], [ 29.879093391581819, -21.21004397598324 ], [ 29.880796346706461, -21.214315285777502 ], [ 29.885694208224663, -21.21701548042256 ], [ 29.887789151630955, -21.221410798880356 ], [ 29.893817981225141, -21.225363083435354 ], [ 29.894784954901127, -21.227391231362105 ], [ 29.893416996107817, -21.228937345308566 ], [ 29.886188205910003, -21.23165554801426 ], [ 29.887428181927817, -21.245958591299313 ], [ 29.89238304259095, -21.250974953122466 ], [ 29.886469223925189, -21.263367861352151 ], [ 29.889278144124432, -21.265223994709004 ], [ 29.891424086386962, -21.269781326356281 ], [ 29.899791844146307, -21.267995189172495 ], [ 29.906235803423158, -21.269408351579273 ], [ 29.85480417185363, -21.310324307312442 ] ] ] } },
{ "type": "Feature", "properties": { "shapeName": "Beitbridge" }, "geometry": { "type": "Polygon", "coordinates": [ [ [ 30.032446824632927, -22.254156175781532 ], [ 30.023165091250803, -22.250596929019082 ], [ 30.021111146219653, -22.245274550675958 ], [ 30.021246032204942, -22.231670621958131 ], [ 30.017271759182108, -22.228709977733331 ], [ 30.00733657709867, -22.228084938672112 ], [ 29.997732497274285, -22.229481914149062 ], [ 29.992082783040303, -22.228328986383588 ], [ 29.988091161161265, -22.22578356357252 ], [ 29.975354546648873, -22.224655410380194 ], [ 29.970699581707663, -22.222645442284772 ], [ 29.966937774841028, -22.220304758639543 ], [ 29.965114375972632, -22.213843141139137 ], [ 29.961040796913494, -22.213568019990362 ], [ 29.926839751441321, -22.188349786146091 ], [ 29.930125729662109, -22.186158402848662 ], [ 29.886144005941958, -22.190190722728687 ], [ 29.870448453222139, -22.181500114006496 ], [ 29.864636614282404, -22.174165594801593 ], [ 29.856789839319617, -22.171177388099863 ], [ 29.833830501912757, -22.170084327423012 ], [ 29.811744136357618, -22.164641954998046 ], [ 29.785018893865413, -22.147243733138509 ], [ 29.783277941409267, -22.143711482279059 ], [ 29.773401221670611, -22.138273101053301 ], [ 29.738330235967339, -22.138467141862748 ], [ 29.716378874208942, -22.141836400168984 ], [ 29.695736464808135, -22.135258946160832 ], [ 29.67479407155173, -22.137096092992749 ], [ 29.670509193658688, -22.134852935621893 ], [ 29.662973403080684, -22.124485201255027 ], [ 29.655030630694, -22.123331125053028 ], [ 29.626120477337963, -22.134144920446658 ], [ 29.622660580678655, -22.138174211404021 ], [ 29.617649735307907, -22.149024989691839 ], [ 29.609087988000624, -22.153964349609282 ], [ 29.602054189197588, -22.152119223076909 ], [ 29.593131439811543, -22.144033653353119 ], [ 29.583432716045706, -22.139215316344007 ], [ 29.578214867011752, -22.139108312995006 ], [ 29.569186132311245, -22.144155680806193 ], [ 29.569022138810567, -22.146066816808968 ], [ 29.559017433598456, -22.152728300938691 ], [ 29.545395840361778, -22.165327211884232 ], [ 29.535793122113716, -22.170871615296676 ], [ 29.525400426114402, -22.174556887006588 ], [ 29.515813705038795, -22.176385025311617 ], [ 29.484969586344334, -22.165033239109107 ], [ 29.465324152962125, -22.163208125230142 ], [ 29.425089322621375, -22.170189657130322 ], [ 29.412501690995441, -22.174478973186524 ], [ 29.404511928038858, -22.181044448201135 ], [ 29.398256110007082, -22.182595564186784 ], [ 29.391843299710672, -22.186656859381628 ], [ 29.380218639769623, -22.190883170608288 ], [ 29.372972849653365, -22.191766240068091 ], [ 29.362834141591918, -22.190250140155399 ], [ 29.35231643688104, -22.181656535200432 ], [ 29.336142883648279, -22.159878993854306 ], [ 29.298929930693873, -22.130286912009637 ], [ 29.28463632940975, -22.115390859081856 ], [ 29.273793612660825, -22.085170706555346 ], [ 29.263135904811975, -22.068634531561543 ], [ 29.257007075802846, -22.063172147382545 ], [ 29.250995247925857, -22.061087003008822 ], [ 29.248247325265311, -22.058469816853346 ], [ 29.204484602188472, -22.072344847641773 ], [ 29.185026167010676, -22.074659030012128 ], [ 29.15859292867367, -22.073578976255988 ], [ 29.123814925590011, -22.06633448836061 ], [ 29.106586416930782, -22.060091055816713 ], [ 29.093536788259598, -22.053624603551327 ], [ 29.071652403644123, -22.03797950289885 ], [ 29.050190000659597, -22.016632992180121 ], [ 29.037720341435545, -21.996842585097113 ], [ 29.188096902862526, -21.897655333330533 ], [ 29.187333921913591, -21.894285091164022 ], [ 29.182993043125066, -21.890132796987245 ], [ 29.181681071737387, -21.880824128856148 ], [ 29.178392159922225, -21.874189654119334 ], [ 29.180048110087796, -21.872079501348253 ], [ 29.183576008219859, -21.87164646702729 ], [ 29.185893937173319, -21.867406159623727 ], [ 29.190499799932297, -21.863431870413024 ], [ 29.200869495724419, -21.858273490067177 ], [ 29.198844545793179, -21.849950892753782 ], [ 29.20449137499628, -21.840631217798204 ], [ 29.207705281404628, -21.839265117007926 ], [ 29.21286313384735, -21.841077242852009 ], [ 29.215888044652957, -21.839277111290016 ], [ 29.215083062582778, -21.834406760987349 ], [ 29.208022260682185, -21.828917371912098 ], [ 29.206223305435685, -21.820741784368636 ], [ 29.208506237201959, -21.817928579790646 ], [ 29.217174985160284, -21.816665482156907 ], [ 29.21796695761185, -21.812259164069303 ], [ 29.221700847667819, -21.809473959938998 ], [ 29.223112803182005, -21.804644610709488 ], [ 29.225906719961642, -21.802840478055714 ], [ 29.226227701230243, -21.79220571195799 ], [ 29.223982759600858, -21.786807324562687 ], [ 29.228195634929421, -21.783174059850978 ], [ 29.228939607769689, -21.777403642868023 ], [ 29.232931493150602, -21.776694588973726 ], [ 29.234876429340545, -21.76859100309548 ], [ 29.23221650461835, -21.767896955318804 ], [ 29.237497343193354, -21.757642211099721 ], [ 29.24794105063944, -21.747417432350971 ], [ 29.298729478604741, -21.653859667226584 ], [ 29.359916629837812, -21.561183910359887 ], [ 29.429870602991741, -21.54676980867464 ], [ 29.452638444675586, -21.539871678268639 ], [ 29.46711451876655, -21.533197796060506 ], [ 29.51976498684769, -21.51474041623419 ], [ 29.495878397999491, -21.453989462244124 ], [ 29.803527001851478, -21.498949494717863 ], [ 29.850242345385823, -21.426485931411889 ], [ 29.896383064154634, -21.359268974818349 ], [ 29.89069915493036, -21.328466601837192 ], [ 29.85480417185363, -21.310324307312442 ], [ 29.906235803423158, -21.269408351579273 ], [ 29.918847303103746, -21.276779815906764 ], [ 29.919022312422101, -21.29338002635518 ], [ 29.921403248003742, -21.29851539929922 ], [ 29.936420823863898, -21.308276099068109 ], [ 29.948124519981207, -21.348865046264279 ], [ 29.9538153602943, -21.353634389909303 ], [ 29.999079071046026, -21.371260639824754 ], [ 30.007677831824594, -21.38107934777986 ], [ 30.018819517092538, -21.387831831790834 ], [ 30.024719362064445, -21.40736424804561 ], [ 30.027153294799916, -21.410904502887206 ], [ 30.033785105739526, -21.413732703690243 ], [ 30.035032074000185, -21.418101020849008 ], [ 30.040211929299971, -21.423026374696974 ], [ 30.039071965287633, -21.42755670504539 ], [ 30.041535903063675, -21.439398563384714 ], [ 30.045909780741738, -21.443838883108015 ], [ 30.054553534691934, -21.447585148759345 ], [ 30.068879132119548, -21.459392995570454 ], [ 30.069577121632619, -21.472454944078834 ], [ 30.072741036427374, -21.4789404116475 ], [ 30.08137578814592, -21.479135420129353 ], [ 30.088222587845223, -21.476543227982063 ], [ 30.093545434736029, -21.476220200751698 ], [ 30.10866300461521, -21.483413712273943 ], [ 30.107029054608688, -21.487519011384165 ], [ 30.097030346987253, -21.492792399960479 ], [ 30.095689387694222, -21.495674609656646 ], [ 30.096138378718081, -21.500740978381884 ], [ 30.126877490562435, -21.496519650308585 ], [ 30.133475301665044, -21.498232769591255 ], [ 30.141388078903731, -21.504476218322964 ], [ 30.146177942420763, -21.505807311134163 ], [ 30.165777372690684, -21.500490912395264 ], [ 30.170146250128255, -21.504091170123388 ], [ 30.1661103761204, -21.516192049916128 ], [ 30.168437317198027, -21.526299780767943 ], [ 30.172515203119019, -21.531858182155929 ], [ 30.178342035585786, -21.532743241819389 ], [ 30.185192834578118, -21.52854293274288 ], [ 30.193030610007327, -21.52866293581792 ], [ 30.208550170447836, -21.538684651740482 ], [ 30.211491088004209, -21.54261093504465 ], [ 30.214388012437041, -21.551419571027452 ], [ 30.218284901341519, -21.553862745214701 ], [ 30.221320813575687, -21.553509718339683 ], [ 30.230754533585923, -21.544009022985222 ], [ 30.235746392431736, -21.545517128808285 ], [ 30.240522257073962, -21.549719429887091 ], [ 30.243034191763229, -21.558845090113664 ], [ 30.241676239746255, -21.57078395491817 ], [ 30.239675300862245, -21.575827320738256 ], [ 30.230361576732491, -21.584898983762855 ], [ 30.229240610936245, -21.588033211877701 ], [ 30.230283583771893, -21.591621470827192 ], [ 30.233402496401766, -21.594377668166373 ], [ 30.250539002433641, -21.593738610445143 ], [ 30.257214808295487, -21.591539447097148 ], [ 30.263905614878922, -21.591587445809068 ], [ 30.275704278694263, -21.596927825018099 ], [ 30.294980722203377, -21.595319696397723 ], [ 30.306049406657394, -21.601397128150097 ], [ 30.328152769433075, -21.600201027444427 ], [ 30.332087656568433, -21.602275174886245 ], [ 30.338270486376757, -21.611077807882452 ], [ 30.344984288670787, -21.607211523867477 ], [ 30.35592096497578, -21.595584674972201 ], [ 30.361091816245278, -21.594860620356314 ], [ 30.372220499089224, -21.601031059280842 ], [ 30.381185247797873, -21.61083776306134 ], [ 30.387773058419327, -21.611077776406091 ], [ 30.395231841695704, -21.608817608324841 ], [ 30.397753770570773, -21.611096771024904 ], [ 30.402166650125139, -21.620395439574224 ], [ 30.407532498185333, -21.624555737733203 ], [ 30.426927942922759, -21.630511156421733 ], [ 30.44335147041113, -21.631205196104531 ], [ 30.446364386934704, -21.635728520720193 ], [ 30.446090403430617, -21.647026337599812 ], [ 30.450215288015386, -21.652567736371282 ], [ 30.461916948962823, -21.651050619323371 ], [ 30.470394704819512, -21.651565650394673 ], [ 30.476185540950269, -21.656032969618309 ], [ 30.478270484774782, -21.661492362646243 ], [ 30.482521362830767, -21.663216485156056 ], [ 30.485704271345014, -21.662310417287699 ], [ 30.4886951814143, -21.657393060227321 ], [ 30.492088082944235, -21.65648499226279 ], [ 30.503230761965028, -21.657983094007477 ], [ 30.506535669153948, -21.660479271643794 ], [ 30.508449616443102, -21.66479058156375 ], [ 30.507594648155305, -21.674148259246806 ], [ 30.505317715778347, -21.677709516897323 ], [ 30.499955872407213, -21.679592656049692 ], [ 30.499234894378162, -21.681776815078763 ], [ 30.499450892179141, -21.687096198673487 ], [ 30.501912823563657, -21.69142450941132 ], [ 30.497861947934837, -21.701078209428488 ], [ 30.498221940072938, -21.704967489154001 ], [ 30.499837896408053, -21.707973704815629 ], [ 30.503762783961633, -21.710257867756241 ], [ 30.509204627584154, -21.711679966743986 ], [ 30.518470360196545, -21.711479947229691 ], [ 30.521834264827987, -21.714192139754118 ], [ 30.524329196900737, -21.719817544365412 ], [ 30.534107914622723, -21.719928546108179 ], [ 30.535276887224768, -21.728313150001611 ], [ 30.54310866686194, -21.73599670038567 ], [ 30.540838738419041, -21.745000350246301 ], [ 30.544264642435905, -21.747916557980886 ], [ 30.553957359617812, -21.745332366218406 ], [ 30.557714247183014, -21.738432866142205 ], [ 30.559166200124878, -21.731920396375301 ], [ 30.562193111026716, -21.729828242671601 ], [ 30.571212856086106, -21.737444787134393 ], [ 30.576724695881694, -21.73506261228448 ], [ 30.582105541066198, -21.73595467318404 ], [ 30.587748383566748, -21.744874312708248 ], [ 30.588090379335483, -21.751952823194586 ], [ 30.590182319899441, -21.7540439723536 ], [ 30.596465137431551, -21.751899814349542 ], [ 30.599542042644885, -21.743053173840678 ], [ 30.607149824995531, -21.745822369107316 ], [ 30.619524479649272, -21.76324961844233 ], [ 30.631573129411436, -21.759392333061726 ], [ 30.639601892445626, -21.750920716888913 ], [ 30.644480748553178, -21.748109512407098 ], [ 30.648957620394583, -21.748853562589261 ], [ 30.650105588389067, -21.750318668142256 ], [ 30.648806626620001, -21.753127870729202 ], [ 30.643515782167981, -21.756724132761519 ], [ 30.637557958687466, -21.763994660578703 ], [ 30.634758044317152, -21.768871013867965 ], [ 30.635351027879494, -21.771348192388871 ], [ 30.642649819646238, -21.774377405559733 ], [ 30.65320551988998, -21.781377904199644 ], [ 30.658568364208577, -21.779939797247607 ], [ 30.66522317265742, -21.781621914139578 ], [ 30.669024073131311, -21.797187033426439 ], [ 30.664880201122287, -21.808170826206663 ], [ 30.66507419696552, -21.811245046938382 ], [ 30.666358160710956, -21.81328819288882 ], [ 30.67203199930691, -21.814816299674078 ], [ 30.674186938405114, -21.817444488157378 ], [ 30.669780069931335, -21.823735942795565 ], [ 30.670222060618414, -21.829454353679637 ], [ 30.672374999620388, -21.831537503353104 ], [ 30.682770699361299, -21.830495421747401 ], [ 30.685205629446898, -21.831560497265002 ], [ 30.692888412707703, -21.839657074712591 ], [ 30.7028821290819, -21.847250615370911 ], [ 30.710816901983037, -21.850274828301224 ], [ 30.715075783121847, -21.855964235092131 ], [ 30.714284808020466, -21.858669429977795 ], [ 30.710145929057376, -21.86182765924724 ], [ 30.712760860607943, -21.872118397104316 ], [ 30.71665475026748, -21.875269620641063 ], [ 30.727111446647768, -21.874117531944705 ], [ 30.730471351086749, -21.875065599135667 ], [ 30.727629442789748, -21.890304694645124 ], [ 30.738103140887233, -21.891256756632572 ], [ 30.75027479836541, -21.903529632109496 ], [ 30.757898577888511, -21.904950729250459 ], [ 30.761371478770513, -21.907023875744869 ], [ 30.761959463890946, -21.909361043933245 ], [ 30.760246516379141, -21.913477339975373 ], [ 30.768900269911114, -21.918840720290916 ], [ 30.771257204338099, -21.922212960755019 ], [ 30.769395258651343, -21.92422410606531 ], [ 30.763509429641431, -21.925511202155633 ], [ 30.756082647005258, -21.929566497961105 ], [ 30.754169705160223, -21.932629719062959 ], [ 30.756897632254493, -21.941446350034653 ], [ 30.761558502156049, -21.949184902165371 ], [ 30.767204343002277, -21.954810302280066 ], [ 30.772684184855621, -21.956631430355742 ], [ 30.783314883311618, -21.964608995783124 ], [ 30.798062456974264, -21.96422896041463 ], [ 30.806841205727949, -21.969763351654763 ], [ 30.808716155637455, -21.974840714613947 ], [ 30.801062377369078, -21.975267750444914 ], [ 30.796601509894685, -21.980819149697481 ], [ 30.797843477015476, -21.985549488768299 ], [ 30.802867335602173, -21.991527913959317 ], [ 30.801734371926614, -21.996597278332217 ], [ 30.803689316691532, -21.99907345410702 ], [ 30.832958469332141, -21.997475323269725 ], [ 30.857413774388192, -22.016665684400323 ], [ 30.859518724570819, -22.034349948797342 ], [ 30.873400327617844, -22.041814475155661 ], [ 30.886943962068244, -22.081091278293968 ], [ 30.889501889977339, -22.084318507285616 ], [ 30.899738592860842, -22.083512443328857 ], [ 30.917083084617616, -22.073566722968678 ], [ 30.927603778680918, -22.072488639631047 ], [ 30.931300673252167, -22.073833734015068 ], [ 30.935284566342148, -22.086197615668539 ], [ 30.931184878113299, -22.105333689115639 ], [ 30.944007741379153, -22.112792621679716 ], [ 30.948059765444498, -22.124998307773296 ], [ 30.947855127002981, -22.136501058972044 ], [ 30.954682022867019, -22.155079741396378 ], [ 30.962634143724983, -22.159792576027996 ], [ 30.982956225665646, -22.161854432410905 ], [ 30.985901456379111, -22.163327193008456 ], [ 30.989435735213817, -22.169218239895258 ], [ 30.98766859984346, -22.174225632761761 ], [ 31.005339976929804, -22.178643910057815 ], [ 31.009757830644332, -22.193960634301732 ], [ 31.006518081266165, -22.197200712832455 ], [ 31.00239476600143, -22.207215497666141 ], [ 31.013292113975638, -22.208393701827447 ], [ 31.013292115774277, -22.210750120941896 ], [ 31.005929052030751, -22.224594089084917 ], [ 31.010935943074571, -22.227539611179338 ], [ 31.020360669846411, -22.218408480365895 ], [ 31.030374451034731, -22.221353998863037 ], [ 31.034497772594705, -22.224004969017813 ], [ 31.036264914260357, -22.230190568743581 ], [ 31.031847074035738, -22.235787067288015 ], [ 31.026251140266652, -22.236670726704233 ], [ 31.020949725162211, -22.232841548790873 ], [ 31.016237359078332, -22.233136104327855 ], [ 31.013092416419227, -22.250434290799433 ], [ 31.017433291610416, -22.252526438207894 ], [ 31.024187094929459, -22.250884316945019 ], [ 31.027614996344596, -22.251866384872358 ], [ 31.030772911750034, -22.263447208172181 ], [ 31.034297812435739, -22.26673344000227 ], [ 31.053304260941957, -22.266607421350045 ], [ 31.053273263047913, -22.268373545880422 ], [ 31.049581372314492, -22.271576776415429 ], [ 31.052095302603391, -22.278665279288987 ], [ 31.049730374986098, -22.283128598320161 ], [ 31.051229332887033, -22.285886793956877 ], [ 31.055442210913554, -22.286864860792434 ], [ 31.061126046393269, -22.285224741424429 ], [ 31.068312842664398, -22.294060366115616 ], [ 31.072518721253459, -22.293772343267051 ], [ 31.080200494573603, -22.288512965256814 ], [ 31.084086382948954, -22.289722048601448 ], [ 31.084131386013155, -22.29755460615371 ], [ 31.086098332254721, -22.301998920673498 ], [ 31.098563977796516, -22.314322791409381 ], [ 31.100331929752997, -22.320181206330687 ], [ 31.113330563165164, -22.335284271914986 ], [ 31.113327459598565, -22.337528765681043 ], [ 31.099727961849283, -22.343024828638534 ], [ 31.098442000705631, -22.345260989269946 ], [ 31.087038331611495, -22.345269995998194 ], [ 31.070475807328592, -22.337384443990061 ], [ 31.051162365636742, -22.33550932230969 ], [ 31.036626785085957, -22.331052012560463 ], [ 30.999785841934113, -22.313739802032899 ], [ 30.995089979341969, -22.315488929342735 ], [ 30.993518027821608, -22.320660297723407 ], [ 30.989824137891333, -22.324955605075047 ], [ 30.982339355162821, -22.325602655087209 ], [ 30.973396612009196, -22.32191739776647 ], [ 30.970489690692546, -22.313741819216261 ], [ 30.959500009139845, -22.311505665779464 ], [ 30.945826406206891, -22.312427738914096 ], [ 30.939690577760302, -22.303304094072303 ], [ 30.932898771713838, -22.300199877293323 ], [ 30.899070748682846, -22.294325477790096 ], [ 30.883463207391173, -22.302650078797001 ], [ 30.86558471962195, -22.295219561268937 ], [ 30.854625036814525, -22.294092487265175 ], [ 30.840999428996213, -22.289335155888637 ], [ 30.833290652578455, -22.289204151385036 ], [ 30.786405019377298, -22.30029196715509 ], [ 30.758604825892405, -22.302550144133363 ], [ 30.750756056229307, -22.305570364065829 ], [ 30.74147932488637, -22.306054402639006 ], [ 30.730736638129372, -22.308293568810655 ], [ 30.728112715139048, -22.31002369430712 ], [ 30.715969068001129, -22.311378797266173 ], [ 30.706960331564858, -22.314793045146757 ], [ 30.671328360241489, -22.308200597611517 ], [ 30.661341649600047, -22.309163672718682 ], [ 30.65015597930244, -22.316383192686317 ], [ 30.638988312568756, -22.330598210154051 ], [ 30.630541560002086, -22.334375483592055 ], [ 30.620766841573243, -22.331912314737906 ], [ 30.608697185404822, -22.321575588157714 ], [ 30.60124139867554, -22.318945404974158 ], [ 30.571686254758959, -22.318394383862142 ], [ 30.564667460274848, -22.320967572397421 ], [ 30.555529731122363, -22.329061153297971 ], [ 30.549139917435923, -22.330068227823915 ], [ 30.529502480841245, -22.323048741759806 ], [ 30.503658227672815, -22.32022755838068 ], [ 30.496035444600523, -22.315661237991606 ], [ 30.485434752084416, -22.314312148811098 ], [ 30.479109936129078, -22.315493237103908 ], [ 30.45529763592657, -22.328588182703299 ], [ 30.390872516875959, -22.347058537973908 ], [ 30.377925894059331, -22.349201697728461 ], [ 30.356796504397096, -22.346487520396352 ], [ 30.335904110848105, -22.348749693969751 ], [ 30.317710635803678, -22.345442471021954 ], [ 30.312871777123917, -22.346356540174497 ], [ 30.295237293898708, -22.354865156328685 ], [ 30.289295466691328, -22.354867160022195 ], [ 30.278899764252401, -22.349430780691307 ], [ 30.274576885430577, -22.345030470986273 ], [ 30.255296421044534, -22.315937415845895 ], [ 30.23896988563223, -22.306079725799691 ], [ 30.23668494657511, -22.298692202246343 ], [ 30.233235044101605, -22.294598913605967 ], [ 30.222996339323231, -22.293209821601749 ], [ 30.197881069065318, -22.295796023352977 ], [ 30.185716420017798, -22.295261993166264 ], [ 30.173461777432408, -22.29773617783809 ], [ 30.158240218737717, -22.298774261949347 ], [ 30.147217540993381, -22.301393456294932 ], [ 30.13209098507042, -22.308799994252183 ], [ 30.125005190060961, -22.308849002005445 ], [ 30.117557401917907, -22.304030664996333 ], [ 30.110897586933277, -22.294908021101946 ], [ 30.100471881252417, -22.284624296172183 ], [ 30.074921609852311, -22.271851404734775 ], [ 30.062047972561174, -22.2591935134339 ], [ 30.054859177093135, -22.254110155582055 ], [ 30.032446824632927, -22.254156175781532 ] ] ] } }
]
}
