{
"type": "FeatureCollection",
"name": "sa4_event_zones",
"crs": { "type": "name", "properties": { "name": "urn:ogc:def:crs:OGC:1.3:CRS84" } },
"features": [
{ "type": "Feature", "properties": { "zone": "control_20km" }, "geometry": { "type": "Polygon", "coordinates": [ [ [ 28.211778549416309, -20.991850377533492 ], [ 28.210641338044724, -21.009544934316533 ], [ 28.207661926924509, -21.027049500796881 ], [ 28.202868401965524, -21.044195359491937 ], [ 28.19630637966031, -21.060817196534217 ], [ 28.188038589133328, -21.076754700836744 ], [ 28.178144286349159, -21.091854116827104 ], [ 28.166718505383724, -21.105969735467806 ], [ 28.153871153372798, -21.118965308813593 ], [ 28.13972595742495, -21.130715374046638 ], [ 28.124419273398789, -21.141106473772723 ], [ 28.108098767974077, -21.150038260349298 ], [ 28.090921986870391, -21.157424473142573 ], [ 28.073054823362611, -21.163193778862098 ], [ 28.054669902389271, -21.167290466487874 ], [ 28.035944896528203, -21.169674989769174 ], [ 28.017060790907049, -21.170324351821368 ], [ 27.99820011471078, -21.169232327958007 ], [ 27.979545157333376, -21.166409524550581 ], [ 27.961276187390133, -21.161883273388657 ], [ 27.943569692757592, -21.155697362696404 ], [ 27.926596659541556, -21.147911607628654 ], [ 27.91052090739511, -21.13860126469914 ], [ 27.895497497927472, -21.127856296166943 ], [ 27.881671232073373, -21.115780491905575 ], [ 27.869175251247231, -21.102490457686446 ], [ 27.858129755905185, -21.088114480109247 ], [ 27.848640853801037, -21.072791279593435 ], [ 27.840799548771031, -21.056668663896627 ], [ 27.834680879339878, -21.03990209553869 ], [ 27.830343214828364, -21.022653187277715 ], [ 27.8278277149841, -21.005088140402524 ], [ 27.827157957472235, -20.987376141071728 ], [ 27.828339735872486, -20.96968773024269 ], [ 27.831361029151012, -20.952193162894844 ], [ 27.836192141927242, -20.935060772262901 ], [ 27.842786013251569, -20.918455354661571 ], [ 27.851078690062479, -20.902536590206754 ], [ 27.860989960013143, -20.887457514326485 ], [ 27.872424136955903, -20.873363054412692 ], [ 27.885270991057531, -20.86038864530002 ], [ 27.899406814294188, -20.848658936476859 ], [ 27.914695610948346, -20.838286603044999 ], [ 27.930990401704772, -20.829371271455631 ], [ 27.948134629022491, -20.821998569969303 ], [ 27.96596365064747, -20.81623931262568 ], [ 27.984306307428664, -20.81214882427383 ], [ 28.00298655101048, -20.809766412916421 ], [ 28.021825116499333, -20.809114994270637 ], [ 28.040641224841618, -20.810200872056473 ], [ 28.059254299407964, -20.813013676099775 ], [ 28.077485681153156, -20.817526458894122 ], [ 28.095160326715703, -20.823695949814478 ], [ 28.11210847393459, -20.831462964727478 ], [ 28.128167259495324, -20.84075296731049 ], [ 28.143182273772009, -20.851476776986001 ], [ 28.157009038407651, -20.863531417010872 ], [ 28.169514392770299, -20.876801094943637 ], [ 28.180577776137092, -20.891158306458234 ], [ 28.190092393290335, -20.906465052291296 ], [ 28.19796625215719, -20.922574157012097 ], [ 28.204123063184362, -20.939330677301189 ], [ 28.208502991307238, -20.956573386524635 ], [ 28.211063252644376, -20.974136321605709 ], [ 28.211778549416309, -20.991850377533492 ] ] ] } },
{ "type": "Feature", "properties": { "zone": "surveillance_40km" }, "geometry": { "type": "Polygon", "coordinates": [ [ [ 28.404124342530597, -20.993762013009373 ], [ 28.401894629866572, -21.029156681693589 ], [ 28.395978031919928, -21.064175267993939 ], [ 28.386429081707107, -21.098479988279628 ], [ 28.373337523751427, -21.131739726173329 ], [ 28.356827537465282, -21.163633248378098 ], [ 28.33705661732694, -21.19385233277622 ], [ 28.314214117445989, -21.222104777443086 ], [ 28.288519471878306, -21.248117260075581 ], [ 28.260220105837117, -21.271638018538873 ], [ 28.229589056689765, -21.292439324790866 ], [ 28.19692232726311, -21.31031972634613 ], [ 28.162535997433217, -21.325106031679496 ], [ 28.126763123174385, -21.336655018526983 ], [ 28.089950455117336, -21.344854846890208 ], [ 28.052455011148655, -21.349626161658875 ], [ 28.014640539613481, -21.350922873091555 ], [ 27.976873911209164, -21.34873260689205 ], [ 27.939521478641147, -21.343076819234284 ], [ 27.90294544352771, -21.334010575768218 ], [ 27.867500269878246, -21.321621997323415 ], [ 27.833529182735422, -21.306031378659924 ], [ 27.801360789286306, -21.287389990140774 ], [ 27.77130585794615, -21.265878575565093 ], [ 27.743654288649559, -21.241705562557399 ], [ 27.7186723049047, -21.215105004818234 ], [ 27.696599895144089, -21.186334278167319 ], [ 27.677648527610188, -21.155671554630437 ], [ 27.661999159519251, -21.123413080814871 ], [ 27.649800557623387, -21.089870288476963 ], [ 27.641167943607595, -21.055366766506118 ], [ 27.636181974077498, -21.02023512453496 ], [ 27.634888061269656, -20.984813779045446 ], [ 27.637296037096608, -20.949443693186449 ], [ 27.64338015976011, -20.914465101566872 ], [ 27.653079458957077, -20.880214251055211 ], [ 27.666298412683776, -20.847020188120787 ], [ 27.682907945826145, -20.815201622509974 ], [ 27.702746738115007, -20.785063896080203 ], [ 27.725622826623351, -20.75689608443022 ], [ 27.751315485787238, -20.730968257581942 ], [ 27.779577365935676, -20.707528924398986 ], [ 27.81013686951167, -20.686802683683144 ], [ 27.842700742550178, -20.668988102982517 ], [ 27.876956857541671, -20.654255844086546 ], [ 27.912577162548679, -20.642747051983573 ], [ 27.949220770352358, -20.634572021730936 ], [ 27.986537160485675, -20.629809155246168 ], [ 28.024169466257995, -20.628504217489713 ], [ 28.061757818294307, -20.630669898887707 ], [ 28.098942715701511, -20.636285688158821 ], [ 28.135368395737956, -20.645298056979563 ], [ 28.170686172802249, -20.657620955170021 ], [ 28.204557717677336, -20.673136612326793 ], [ 28.236658248268512, -20.691696639095102 ], [ 28.266679603563222, -20.713123418577517 ], [ 28.294333173219442, -20.737211775746822 ], [ 28.319352656062133, -20.763730910181952 ], [ 28.341496621838058, -20.792426575002604 ], [ 28.360550851852953, -20.823023482556124 ], [ 28.37633043559644, -20.855227915229381 ], [ 28.388681602155643, -20.888730517735514 ], [ 28.397483267132223, -20.923209245378274 ], [ 28.402648277915738, -20.958332441141916 ], [ 28.404124342530597, -20.993762013009373 ] ] ] } }
]
}
