{
"type": "FeatureCollection",
"name": "districts",
"crs": { "type": "name", "properties": { "name": "urn:ogc:def:crs:OGC:1.3:CRS84" } },
"features": [
{ "type": "Feature", "properties": { "shapeName": "Mhondoro-Ngezi" }, "geometry": { "type": "Polygon", "coordinates": [ [ [ 30.0363625984387, -18.227455269282984 ], [ 29.999546528785572, -18.258075932083841 ], [ 30.021980216804593, -18.28457724923544 ], [ 30.013925294238561, -18.300872657251091 ], [ 30.026924719955048, -18.306592524140456 ], [ 30.007463207291096, -18.343431131748275 ], [ 30.002661539249345, -18.365906756137178 ], [ 30.015015331388668, -18.366654568190938 ], [ 30.015356837025934, -18.379293958601806 ], [ 29.999959263568883, -18.378551931898301 ], [ 29.989387147967079, -18.397644496058035 ], [ 29.963039647567598, -18.387016869692275 ], [ 29.947242006303554, -18.409974431833859 ], [ 29.904089183969745, -18.417894800265117 ], [ 29.844518391968904, -18.381581414866275 ], [ 29.834056569442737, -18.391377157687884 ], [ 29.828941302681756, -18.438469363776164 ], [ 29.815201138093528, -18.442990156795247 ], [ 29.800215553880264, -18.433977471428022 ], [ 29.789570858348043, -18.438334814137988 ], [ 29.785599964984158, -18.430273194307347 ], [ 29.777604190047725, -18.430195193252871 ], [ 29.772361332616413, -18.422912634281374 ], [ 29.763915574701912, -18.426705932770858 ], [ 29.760285669864118, -18.416669160368599 ], [ 29.739954775449178, -18.41389945878268 ], [ 29.731500639433818, -18.408306321910686 ], [ 29.717162044978068, -18.412144666631946 ], [ 29.708786572818894, -18.40246625859163 ], [ 29.690248246652516, -18.402144044350052 ], [ 29.688744093357741, -18.406203483340448 ], [ 29.681822702839952, -18.395187601786347 ], [ 29.663311896882419, -18.393501482003956 ], [ 29.662069647373926, -18.383946644656419 ], [ 29.646412118065996, -18.382309155810617 ], [ 29.642029234558947, -18.38767911827739 ], [ 29.63798950514979, -18.375351188892978 ], [ 29.627254393397493, -18.37049467738558 ], [ 29.602404091821541, -18.367295446143658 ], [ 29.587341520991117, -18.373307920634488 ], [ 29.577538794919917, -18.368792579316562 ], [ 29.564418193410063, -18.406073468992361 ], [ 29.567437122812862, -18.426880075141071 ], [ 29.560426325116282, -18.432390504796842 ], [ 29.558950373717778, -18.443519364807514 ], [ 29.550031628121417, -18.445697539735761 ], [ 29.545501761824141, -18.454239202443773 ], [ 29.551530609404836, -18.476871945002586 ], [ 29.547309731892767, -18.482706398339531 ], [ 29.55369155598629, -18.488547844818697 ], [ 29.554111562702133, -18.514143818956939 ], [ 29.544946837646705, -18.535731489658303 ], [ 29.553909616836165, -18.578794802290417 ], [ 29.571305129932227, -18.584700245553222 ], [ 29.581364839589014, -18.577667696810352 ], [ 29.596941401872414, -18.579843853655859 ], [ 29.635772329244674, -18.612914375318041 ], [ 29.648293976581215, -18.616683657364433 ], [ 29.665453482820283, -18.604028670879586 ], [ 29.690621779010371, -18.613902414755671 ], [ 29.696137619897684, -18.610223128045845 ], [ 29.707675298136337, -18.615599534167927 ], [ 29.730543648252421, -18.611123174941042 ], [ 29.735487513782346, -18.619159789971718 ], [ 29.736038516008534, -18.642884615642345 ], [ 29.750709103053964, -18.645514808718474 ], [ 29.762698755373663, -18.63387990637824 ], [ 29.777079345554682, -18.630335622565838 ], [ 29.781083246801415, -18.649235074917669 ], [ 29.793594890958957, -18.646745876034345 ], [ 29.800131709019468, -18.651073203811222 ], [ 29.806072557762491, -18.674698016577054 ], [ 29.814548318019547, -18.673833945333399 ], [ 29.82980889208028, -18.681982562154872 ], [ 29.83531572893736, -18.672845856432957 ], [ 29.842271532081838, -18.671466746024066 ], [ 29.850442304645412, -18.677505204678596 ], [ 29.855704164789472, -18.69077222060605 ], [ 29.864797902616999, -18.683702671881747 ], [ 29.889505212601875, -18.69571057957603 ], [ 29.891247167804124, -18.703093146056347 ], [ 29.909953634253327, -18.694737492296611 ], [ 29.915000495745176, -18.702953120435325 ], [ 29.923632252715379, -18.70361916596562 ], [ 29.931412021756955, -18.688830024655829 ], [ 29.936630878033611, -18.693868409121137 ], [ 29.946628591002934, -18.68729489684938 ], [ 29.954088383320595, -18.692319278842547 ], [ 29.976685735687738, -18.680508357243241 ], [ 29.98923039132535, -18.695054467077512 ], [ 30.008503846381359, -18.69557549484017 ], [ 30.018028587856634, -18.712959824844347 ], [ 30.039717963990256, -18.698087668749622 ], [ 30.049738681663371, -18.699864800104478 ], [ 30.054282559426042, -18.70872347806295 ], [ 30.067040199230462, -18.709532532271453 ], [ 30.071837072077528, -18.72274154360997 ], [ 30.100477258309638, -18.717038089380651 ], [ 30.105190128014897, -18.722449501683172 ], [ 30.120390699189102, -18.72443364479517 ], [ 30.132264359418059, -18.718301167229242 ], [ 30.146642953100184, -18.719304235267487 ], [ 30.150781840157151, -18.725387699684234 ], [ 30.18167596755228, -18.730484072550666 ], [ 30.211531141190051, -18.758107176581177 ], [ 30.221875862759134, -18.780994926911148 ], [ 30.260220780240331, -18.784975211014569 ], [ 30.274563389277716, -18.809113053856152 ], [ 30.28919997198949, -18.804880720757069 ], [ 30.296022773232096, -18.795646009421148 ], [ 30.316579193784037, -18.800851395625386 ], [ 30.326847910797596, -18.814269418817275 ], [ 30.3227630299358, -18.818459742701236 ], [ 30.353411173375207, -18.837464182117969 ], [ 30.355330126300828, -18.84796098564351 ], [ 30.373859603120593, -18.852028287422229 ], [ 30.384915287848514, -18.84883803592885 ], [ 30.390578122317947, -18.840573400036874 ], [ 30.395076004162888, -18.855543543759097 ], [ 30.408064637993334, -18.85810873370815 ], [ 30.411905533197, -18.864869249580352 ], [ 30.420876275899047, -18.860277892914951 ], [ 30.43974675203674, -18.877542204555539 ], [ 30.446883557593651, -18.892026309608354 ], [ 30.476089736881079, -18.902153069253302 ], [ 30.490887317445811, -18.900645946391194 ], [ 30.504483937358827, -18.911157743443766 ], [ 30.530284204598331, -18.909540605397126 ], [ 30.557524941313602, -18.876750187137759 ], [ 30.558212354778334, -18.819558516782422 ], [ 30.599808169656001, -18.809019686954514 ], [ 30.602523064648551, -18.76012793386468 ], [ 30.611438804704619, -18.746908914850508 ], [ 30.598426146337147, -18.699689294359359 ], [ 30.602797021172933, -18.696782068171956 ], [ 30.630375256138507, -18.724195160300951 ], [ 30.639533980005922, -18.6953969430852 ], [ 30.64908773097028, -18.732940822031253 ], [ 30.682354753991945, -18.670983043798003 ], [ 30.706651051398694, -18.643320903716983 ], [ 30.709138645888288, -18.634965815631915 ], [ 30.70391243494123, -18.634330134871675 ], [ 30.766240767871068, -18.570732058304998 ], [ 30.765171325236906, -18.506009485196671 ], [ 30.733784239774764, -18.555799337246299 ], [ 30.663170227674414, -18.539301102027309 ], [ 30.655877436196306, -18.54194330917062 ], [ 30.620819421440785, -18.530149418066856 ], [ 30.612245667260936, -18.535848862211196 ], [ 30.601850958574857, -18.533216663642861 ], [ 30.599091039833638, -18.537858023613069 ], [ 30.591792243570296, -18.533008653636273 ], [ 30.572114802353269, -18.535333842831108 ], [ 30.567368942751671, -18.547991821366338 ], [ 30.550344425920173, -18.549679960130732 ], [ 30.541828663738727, -18.545145615200738 ], [ 30.532646916281635, -18.531013530679445 ], [ 30.520156268637834, -18.531856602711514 ], [ 30.500174828084255, -18.521466812427548 ], [ 30.494064004437746, -18.525653137917686 ], [ 30.489204133955752, -18.513092173042253 ], [ 30.476120779741336, -18.521591593610196 ], [ 30.466120928179976, -18.518638454242875 ], [ 30.464161054221051, -18.512550224309109 ], [ 30.446461279185769, -18.503707975198495 ], [ 30.475848449194416, -18.44232152031293 ], [ 30.43228219420206, -18.437454609923975 ], [ 30.39808874172104, -18.409026417703046 ], [ 30.38070223355453, -18.422002128249915 ], [ 30.354942728168055, -18.415974384139588 ], [ 30.289564810583784, -18.413064935723014 ], [ 30.255102239940584, -18.403575838048766 ], [ 30.249874823899574, -18.390148815323244 ], [ 30.239976102203229, -18.38808666126414 ], [ 30.242494028187934, -18.382158201606273 ], [ 30.219911666649864, -18.385168447138085 ], [ 30.21352184486949, -18.380443085824709 ], [ 30.203446131745011, -18.384825429737418 ], [ 30.202816147301974, -18.37932600510743 ], [ 30.196699323366772, -18.384479406796515 ], [ 30.199488246201099, -18.388431711136661 ], [ 30.192110456029695, -18.390407868252964 ], [ 30.190944236257906, -18.345097314420457 ], [ 30.09510235585708, -18.350793121699155 ], [ 30.12565128229329, -18.309547652812114 ], [ 30.121432838351552, -18.296942934932531 ], [ 30.116077621198485, -18.299012651405803 ], [ 30.097135423984582, -18.272871944227802 ], [ 30.086750211258959, -18.283485076191255 ], [ 30.080069023843237, -18.243370116724975 ], [ 30.065183599124566, -18.258842423093768 ], [ 30.0363625984387, -18.227455269282984 ] ] ] } },
{ "type": "Feature", "properties": { "shapeName": "Gwanda" }, "geometry": { "type": "Polygon", "coordinates": [ [ [ 29.85480417185363, -21.310324307312442 ], [ 29.89069915493036, -21.328466601837192 ], [ 29.896383064154634, -21.359268974818349 ], [ 29.803527001851478, -21.498949494717863 ], [ 29.495878397999491, -21.453989462244124 ], [ 29.51976498684769, -21.51474041623419 ], [ 29.429870602991741, -21.54676980867464 ], [ 29.359916629837812, -21.561183910359887 ], [ 29.298729478604741, -21.653859667226584 ], [ 29.24794105063944, -21.747417432350971 ], [ 29.23221650461835, -21.767896955318804 ], [ 29.232931493150602, -21.776694588973726 ], [ 29.223982759600858, -21.786807324562687 ], [ 29.225906719961642, -21.802840478055714 ], [ 29.217174985160284, -21.816665482156907 ], [ 29.206223305435685, -21.820741784368636 ], [ 29.215888044652957, -21.839277111290016 ], [ 29.20449137499628, -21.840631217798204 ], [ 29.198844545793179, -21.849950892753782 ], [ 29.200869495724419, -21.858273490067177 ], [ 29.178392159922225, -21.874189654119334 ], [ 29.188096902862526, -21.897655333330533 ], [ 29.037720341435545, -21.996842585097113 ], [ 29.027321617268512, -21.973063888129843 ], [ 29.02046878130767, -21.940287541590635 ], [ 29.023033670882512, -21.904207948014289 ], [ 29.036795233082898, -21.863926038969907 ], [ 29.053105738047805, -21.839897295801165 ], [ 29.078295989430785, -21.81661559666361 ], [ 29.071651170671146, -21.806778895037098 ], [ 29.0584845417672, -21.79916035677337 ], [ 29.008690965617518, -21.787357549773105 ], [ 28.990142479789768, -21.767254117739469 ], [ 28.959234375103506, -21.772221503285664 ], [ 28.902148008375093, -21.76132376860221 ], [ 28.860133209312778, -21.752250152246233 ], [ 28.8282471061396, -21.732020721345464 ], [ 28.794547073078718, -21.728534500578064 ], [ 28.775144619011257, -21.716263633291305 ], [ 28.779806499752794, -21.700718258659265 ], [ 28.773679896570172, -21.693231590048697 ], [ 28.774501212159919, -21.676779702383044 ], [ 28.755256414957387, -21.655262249088366 ], [ 28.74343246575296, -21.654211177841603 ], [ 28.732121778649855, -21.64268835463406 ], [ 28.741860484554934, -21.629440388184207 ], [ 28.730580806137823, -21.625852139127289 ], [ 28.723854978085399, -21.605323658768327 ], [ 28.766778589752391, -21.459224025211654 ], [ 28.746979023955362, -21.329339594373323 ], [ 28.681123854095574, -21.270819387984432 ], [ 28.695055886726891, -21.239936032690252 ], [ 28.620384550845813, -21.227708296974754 ], [ 28.656971461093576, -21.18924045271666 ], [ 28.633817072936608, -21.139378827430107 ], [ 28.689210425666147, -21.082817635246499 ], [ 28.675271797393805, -21.054735590073221 ], [ 28.700000068818724, -21.036072199437228 ], [ 28.719946531970265, -21.070008669231925 ], [ 28.76286628283998, -21.051645284035374 ], [ 28.742557829252803, -21.015484649689881 ], [ 28.762342239644511, -20.994459088763506 ], [ 28.699144004255174, -20.948659782102254 ], [ 28.70606570863697, -20.853781796092562 ], [ 28.65530999807288, -20.693470014810543 ], [ 28.679513305394721, -20.692737939125323 ], [ 28.733051762237039, -20.679802934673376 ], [ 28.748006231644126, -20.647125673836058 ], [ 28.784380237764935, -20.622961684952486 ], [ 28.815130395104688, -20.659293347309642 ], [ 28.825387100749026, -20.659044319142708 ], [ 28.923201344018935, -20.69920020323957 ], [ 28.956987279593534, -20.59717262778463 ], [ 28.976236743387517, -20.611104643328758 ], [ 29.048111682153831, -20.604940127351085 ], [ 29.133720218645635, -20.588090808695938 ], [ 29.158744474633124, -20.557362512120051 ], [ 29.182914787561913, -20.560834750200399 ], [ 29.182087842204965, -20.594658255927754 ], [ 29.199945400909769, -20.671073895145582 ], [ 29.222583800215546, -20.72214564879107 ], [ 29.258136878355174, -20.82827644771686 ], [ 29.270233541218431, -20.83792014905157 ], [ 29.271293519368498, -20.847363842563141 ], [ 29.285303125875487, -20.856077473076311 ], [ 29.297551816735734, -20.903159927796253 ], [ 29.324772044370889, -20.910860471803517 ], [ 29.349201361665962, -20.931134942640824 ], [ 29.356075177952675, -20.944964954177181 ], [ 29.345829497119269, -20.973098028783738 ], [ 29.349937404268644, -21.000661048089228 ], [ 29.3466565036303, -21.007211532274766 ], [ 29.35794019033375, -21.018509350953082 ], [ 29.357294220409472, -21.030744248883593 ], [ 29.439539882895076, -21.056263054741237 ], [ 29.498596163633749, -21.028180951111892 ], [ 29.534468142905951, -21.036806555807686 ], [ 29.592461482222518, -21.040537784764467 ], [ 29.6896036778748, -21.021338305389463 ], [ 29.730700500222497, -21.022919391342043 ], [ 29.752120938958058, -21.087280090926811 ], [ 29.756749809118787, -21.09086234958761 ], [ 29.76596454287494, -21.08889919939196 ], [ 29.770680422617033, -21.107396549666248 ], [ 29.801323565815949, -21.135646594827904 ], [ 29.84105843685353, -21.151373715613147 ], [ 29.843440375181274, -21.158526236854129 ], [ 29.831429725448572, -21.164866709138209 ], [ 29.831303737373332, -21.175114458416431 ], [ 29.845681334604649, -21.188996461662555 ], [ 29.846692314894028, -21.200310288305161 ], [ 29.879093391581819, -21.21004397598324 ], [ 29.894784954901127, -21.227391231362105 ], [ 29.886188205910003, -21.23165554801426 ], [ 29.887428181927817, -21.245958591299313 ], [ 29.89238304259095, -21.250974953122466 ], [ 29.886469223925189, -21.263367861352151 ], [ 29.891424086386962, -21.269781326356281 ], [ 29.906235803423158, -21.269408351579273 ], [ 29.85480417185363, -21.310324307312442 ] ] ] } },
{ "type": "Feature", "properties": { "shapeName": "Beitbridge" }, "geometry": { "type": "Polygon", "coordinates": [ [ [ 30.054859177093135, -22.254110155582055 ], [ 30.023165091250803, -22.250596929019082 ], [ 30.021246032204942, -22.231670621958131 ], [ 30.017271759182108, -22.228709977733331 ], [ 29.997732497274285, -22.229481914149062 ], [ 29.970699581707663, -22.222645442284772 ], [ 29.965114375972632, -22.213843141139137 ], [ 29.926839751441321, -22.188349786146091 ], [ 29.930125729662109, -22.186158402848662 ], [ 29.886144005941958, -22.190190722728687 ], [ 29.856789839319617, -22.171177388099863 ], [ 29.811744136357618, -22.164641954998046 ], [ 29.773401221670611, -22.138273101053301 ], [ 29.716378874208942, -22.141836400168984 ], [ 29.695736464808135, -22.135258946160832 ], [ 29.67479407155173, -22.137096092992749 ], [ 29.662973403080684, -22.124485201255027 ], [ 29.655030630694, -22.123331125053028 ], [ 29.626120477337963, -22.134144920446658 ], [ 29.617649735307907, -22.149024989691839 ], [ 29.609087988000624, -22.153964349609282 ], [ 29.578214867011752, -22.139108312995006 ], [ 29.545395840361778, -22.165327211884232 ], [ 29.525400426114402, -22.174556887006588 ], [ 29.515813705038795, -22.176385025311617 ], [ 29.484969586344334, -22.165033239109107 ], [ 29.465324152962125, -22.163208125230142 ], [ 29.425089322621375, -22.170189657130322 ], [ 29.380218639769623, -22.190883170608288 ], [ 29.362834141591918, -22.190250140155399 ], [ 29.336142883648279, -22.159878993854306 ], [ 29.28463632940975, -22.115390859081856 ], [ 29.273793612660825, -22.085170706555346 ], [ 29.257007075802846, -22.063172147382545 ], [ 29.248247325265311, -22.058469816853346 ], [ 29.185026167010676, -22.074659030012128 ], [ 29.123814925590011, -22.06633448836061 ], [ 29.093536788259598, -22.053624603551327 ], [ 29.071652403644123, -22.03797950289885 ], [ 29.037720341435545, -21.996842585097113 ], [ 29.188096902862526, -21.897655333330533 ], [ 29.178392159922225, -21.874189654119334 ], [ 29.200869495724419, -21.858273490067177 ], [ 29.198844545793179, -21.849950892753782 ], [ 29.20449137499628, -21.840631217798204 ], [ 29.215888044652957, -21.839277111290016 ], [ 29.206223305435685, -21.820741784368636 ], [ 29.217174985160284, -21.816665482156907 ], [ 29.225906719961642, -21.802840478055714 ], [ 29.223982759600858, -21.786807324562687 ], [ 29.232931493150602, -21.776694588973726 ], [ 29.23221650461835, -21.767896955318804 ], [ 29.24794105063944, -21.747417432350971 ], [ 29.298729478604741, -21.653859667226584 ], [ 29.359916629837812, -21.561183910359887 ], [ 29.429870602991741, -21.54676980867464 ], [ 29.51976498684769, -21.51474041623419 ], [ 29.495878397999491, -21.453989462244124 ], [ 29.803527001851478, -21.498949494717863 ], [ 29.896383064154634, -21.359268974818349 ], [ 29.89069915493036, -21.328466601837192 ], [ 29.85480417185363, -21.310324307312442 ], [ 29.906235803423158, -21.269408351579273 ], [ 29.918847303103746, -21.276779815906764 ], [ 29.921403248003742, -21.29851539929922 ], [ 29.936420823863898, -21.308276099068109 ], [ 29.948124519981207, -21.348865046264279 ], [ 29.999079071046026, -21.371260639824754 ], [ 30.018819517092538, -21.387831831790834 ], [ 30.024719362064445, -21.40736424804561 ], [ 30.040211929299971, -21.423026374696974 ], [ 30.041535903063675, -21.439398563384714 ], [ 30.068879132119548, -21.459392995570454 ], [ 30.072741036427374, -21.4789404116475 ], [ 30.093545434736029, -21.476220200751698 ], [ 30.10866300461521, -21.483413712273943 ], [ 30.097030346987253, -21.492792399960479 ], [ 30.096138378718081, -21.500740978381884 ], [ 30.126877490562435, -21.496519650308585 ], [ 30.146177942420763, -21.505807311134163 ], [ 30.165777372690684, -21.500490912395264 ], [ 30.170146250128255, -21.504091170123388 ], [ 30.1661103761204, -21.516192049916128 ], [ 30.172515203119019, -21.531858182155929 ], [ 30.193030610007327, -21.52866293581792 ], [ 30.208550170447836, -21.538684651740482 ], [ 30.218284901341519, -21.553862745214701 ], [ 30.230754533585923, -21.544009022985222 ], [ 30.240522257073962, -21.549719429887091 ], [ 30.241676239746255, -21.57078395491817 ], [ 30.229240610936245, -21.588033211877701 ], [ 30.233402496401766, -21.594377668166373 ], [ 30.263905614878922, -21.591587445809068 ], [ 30.275704278694263, -21.596927825018099 ], [ 30.294980722203377, -21.595319696397723 ], [ 30.306049406657394, -21.601397128150097 ], [ 30.328152769433075, -21.600201027444427 ], [ 30.338270486376757, -21.611077807882452 ], [ 30.361091816245278, -21.594860620356314 ], [ 30.381185247797873, -21.61083776306134 ], [ 30.395231841695704, -21.608817608324841 ], [ 30.407532498185333, -21.624555737733203 ], [ 30.44335147041113, -21.631205196104531 ], [ 30.450215288015386, -21.652567736371282 ], [ 30.470394704819512, -21.651565650394673 ], [ 30.482521362830767, -21.663216485156056 ], [ 30.492088082944235, -21.65648499226279 ], [ 30.506535669153948, -21.660479271643794 ], [ 30.507594648155305, -21.674148259246806 ], [ 30.499234894378162, -21.681776815078763 ], [ 30.501912823563657, -21.69142450941132 ], [ 30.498221940072938, -21.704967489154001 ], [ 30.503762783961633, -21.710257867756241 ], [ 30.518470360196545, -21.711479947229691 ], [ 30.524329196900737, -21.719817544365412 ], [ 30.534107914622723, -21.719928546108179 ], [ 30.544264642435905, -21.747916557980886 ], [ 30.553957359617812, -21.745332366218406 ], [ 30.562193111026716, -21.729828242671601 ], [ 30.571212856086106, -21.737444787134393 ], [ 30.582105541066198, -21.73595467318404 ], [ 30.590182319899441, -21.7540439723536 ], [ 30.596465137431551, -21.751899814349542 ], [ 30.599542042644885, -21.743053173840678 ], [ 30.607149824995531, -21.745822369107316 ], [ 30.619524479649272, -21.76324961844233 ], [ 30.648957620394583, -21.748853562589261 ], [ 30.635351027879494, -21.771348192388871 ], [ 30.65320551988998, -21.781377904199644 ], [ 30.66522317265742, -21.781621914139578 ], [ 30.669024073131311, -21.797187033426439 ], [ 30.66507419696552, -21.811245046938382 ], [ 30.674186938405114, -21.817444488157378 ], [ 30.670222060618414, -21.829454353679637 ], [ 30.685205629446898, -21.831560497265002 ], [ 30.710816901983037, -21.850274828301224 ], [ 30.715075783121847, -21.855964235092131 ], [ 30.710145929057376, -21.86182765924724 ], [ 30.712760860607943, -21.872118397104316 ], [ 30.730471351086749, -21.875065599135667 ], [ 30.727629442789748, -21.890304694645124 ], [ 30.738103140887233, -21.891256756632572 ], [ 30.75027479836541, -21.903529632109496 ], [ 30.761371478770513, -21.907023875744869 ], [ 30.760246516379141, -21.913477339975373 ], [ 30.771257204338099, -21.922212960755019 ], [ 30.754169705160223, -21.932629719062959 ], [ 30.761558502156049, -21.949184902165371 ], [ 30.783314883311618, -21.964608995783124 ], [ 30.798062456974264, -21.96422896041463 ], [ 30.806841205727949, -21.969763351654763 ], [ 30.808716155637455, -21.974840714613947 ], [ 30.801062377369078, -21.975267750444914 ], [ 30.796601509894685, -21.980819149697481 ], [ 30.803689316691532, -21.99907345410702 ], [ 30.832958469332141, -21.997475323269725 ], [ 30.857413774388192, -22.016665684400323 ], [ 30.859518724570819, -22.034349948797342 ], [ 30.873400327617844, -22.041814475155661 ], [ 30.889501889977339, -22.084318507285616 ], [ 30.917083084617616, -22.073566722968678 ], [ 30.931300673252167, -22.073833734015068 ], [ 30.935284566342148, -22.086197615668539 ], [ 30.931184878113299, -22.105333689115639 ], [ 30.944007741379153, -22.112792621679716 ], [ 30.954682022867019, -22.155079741396378 ], [ 30.982956225665646, -22.161854432410905 ], [ 30.989435735213817, -22.169218239895258 ], [ 30.98766859984346, -22.174225632761761 ], [ 31.005339976929804, -22.178643910057815 ], [ 31.009757830644332, -22.193960634301732 ], [ 31.00239476600143, -22.207215497666141 ], [ 31.013292113975638, -22.208393701827447 ], [ 31.005929052030751, -22.224594089084917 ], [ 31.010935943074571, -22.227539611179338 ], [ 31.020360669846411, -22.218408480365895 ], [ 31.034497772594705, -22.224004969017813 ], [ 31.036264914260357, -22.230190568743581 ], [ 31.031847074035738, -22.235787067288015 ], [ 31.016237359078332, -22.233136104327855 ], [ 31.013092416419227, -22.250434290799433 ], [ 31.027614996344596, -22.251866384872358 ], [ 31.034297812435739, -22.26673344000227 ], [ 31.053304260941957, -22.266607421350045 ], [ 31.049581372314492, -22.271576776415429 ], [ 31.051229332887033, -22.285886793956877 ], [ 31.061126046393269, -22.285224741424429 ], [ 31.068312842664398, -22.294060366115616 ], [ 31.084086382948954, -22.289722048601448 ], [ 31.086098332254721, -22.301998920673498 ], [ 31.113327459598565, -22.337528765681043 ], [ 31.098442000705631, -22.345260989269946 ], [ 31.087038331611495, -22.345269995998194 ], [ 31.070475807328592, -22.337384443990061 ], [ 31.036626785085957, -22.331052012560463 ], [ 30.999785841934113, -22.313739802032899 ], [ 30.989824137891333, -22.324955605075047 ], [ 30.982339355162821, -22.325602655087209 ], [ 30.973396612009196, -22.32191739776647 ], [ 30.970489690692546, -22.313741819216261 ], [ 30.945826406206891, -22.312427738914096 ], [ 30.932898771713838, -22.300199877293323 ], [ 30.899070748682846, -22.294325477790096 ], [ 30.883463207391173, -22.302650078797001 ], [ 30.833290652578455, -22.289204151385036 ], [ 30.706960331564858, -22.314793045146757 ], [ 30.661341649600047, -22.309163672718682 ], [ 30.630541560002086, -22.334375483592055 ], [ 30.60124139867554, -22.318945404974158 ], [ 30.571686254758959, -22.318394383862142 ], [ 30.549139917435923, -22.330068227823915 ], [ 30.485434752084416, -22.314312148811098 ], [ 30.45529763592657, -22.328588182703299 ], [ 30.390872516875959, -22.347058537973908 ], [ 30.317710635803678, -22.345442471021954 ], [ 30.289295466691328, -22.354867160022195 ], [ 30.274576885430577, -22.345030470986273 ], [ 30.255296421044534, -22.315937415845895 ], [ 30.23896988563223, -22.306079725799691 ], [ 30.233235044101605, -22.294598913605967 ], [ 30.158240218737717, -22.298774261949347 ], [ 30.125005190060961, -22.308849002005445 ], [ 30.100471881252417, -22.284624296172183 ], [ 30.074921609852311, -22.271851404734775 ], [ 30.054859177093135, -22.254110155582055 ] ] ] } }
]
}
